NORAD_CAT_ID,OBJECT_NAME,OBJECT_TYPE,EPOCH,MEAN_MOTION,ECCENTRICITY,INCLINATION,RA_OF_ASC_NODE,ARG_OF_PERICENTER,MEAN_ANOMALY,BSTAR,MEAN_MOTION_DOT,MEAN_MOTION_DDOT,TLE_LINE0,TLE_LINE1,TLE_LINE2,SEMIMAJOR_AXIS,PERIOD,APOGEE,PERIGEE,DECAYED
53798.0,STARLINK-4712,PAYLOAD,2023-11-12 21:29:34,15.08845707,0.0001326,53.2151,119.6172,85.7962,274.3182,6.7079e-06,-1.81e-06,0.0,0 STARLINK-4712,1 53798U 22111AB  23316.89553726 -.00000181  00000-0  67079-5 0  9994,2 53798  53.2151 119.6172 0001326  85.7962 274.3182 15.08845707 65695,6917.863,95.437,540.645,538.811,0.0
53798.0,STARLINK-4712,PAYLOAD,2023-11-13 03:51:07,15.0883897,0.0001356,53.2151,118.4278,88.1436,271.9712,0.00022038,3.221e-05,0.0,0 STARLINK-4712,1 53798U 22111AB  23317.16050127  .00003221  00000-0  22038-3 0  9993,2 53798  53.2151 118.4278 0001356  88.1436 271.9712 15.08838970 65736,6917.884,95.438,540.687,538.81,0.0
53798.0,STARLINK-4712,PAYLOAD,2023-11-13 19:44:58,15.08840231,0.000132,53.2154,115.4537,86.722,273.3923,8.5276e-05,1.07e-05,0.0,0 STARLINK-4712,1 53798U 22111AB  23317.82289984  .00001070  00000-0  85276-4 0  9995,2 53798  53.2154 115.4537 0001320  86.7220 273.3923 15.08840231 65834,6917.88,95.438,540.658,538.832,0.0
53798.0,STARLINK-4712,PAYLOAD,2023-11-14 13:14:12,15.08849159,0.0001457,53.2159,112.1826,82.6243,277.4915,-0.00033933,-5.686e-05,0.0,0 STARLINK-4712,1 53798U 22111AB  23318.55153528 -.00005686  00000-0 -33933-3 0  9991,2 53798  53.2159 112.1826 0001457  82.6243 277.4915 15.08849159 65941,6917.852,95.437,540.725,538.709,0.0
53798.0,STARLINK-4712,PAYLOAD,2023-11-14 19:35:45,15.0884486,0.0001299,53.2156,110.9935,87.3338,272.7802,3.0575e-05,1.99e-06,0.0,0 STARLINK-4712,1 53798U 22111AB  23318.81649871  .00000199  00000-0  30575-4 0  9993,2 53798  53.2156 110.9935 0001299  87.3338 272.7802 15.08844860 65987,6917.866,95.437,540.629,538.832,0.0
53798.0,STARLINK-4712,PAYLOAD,2023-11-15 13:05:00,15.08841337,0.0002884,53.2125,107.7227,84.9822,275.1499,7.5514e-05,9.13e-06,0.0,0 STARLINK-4712,1 53798U 22111AB  23319.54514906  .00000913  00000-0  75514-4 0  9990,2 53798  53.2125 107.7227 0002884  84.9822 275.1499 15.08841337 66091,6917.876,95.437,541.736,537.746,0.0
53798.0,STARLINK-4712,PAYLOAD,2023-11-15 19:26:32,15.08840813,0.0001727,53.2159,106.53,112.4663,247.6512,0.00011325,1.515e-05,0.0,0 STARLINK-4712,1 53798U 22111AB  23319.81010203  .00001515  00000-0  11325-3 0  9999,2 53798  53.2159 106.5300 0001727 112.4663 247.6512 15.08840813 65325,6917.878,95.438,540.938,538.548,0.0
53798.0,STARLINK-4712,PAYLOAD,2023-11-16 09:45:01,15.0884035,0.0001771,53.2152,103.8545,111.6828,248.4352,7.7509e-05,9.46e-06,0.0,0 STARLINK-4712,1 53798U 22111AB  23320.40626379  .00000946  00000-0  77509-4 0  9997,2 53798  53.2152 103.8545 0001771 111.6828 248.4352 15.08840350 66229,6917.879,95.438,540.969,538.519,0.0
53798.0,STARLINK-4712,PAYLOAD,2023-11-16 16:06:33,15.08842164,0.0002042,53.2129,102.6671,87.804,272.3186,8.9791e-05,1.141e-05,0.0,0 STARLINK-4712,1 53798U 22111AB  23320.67122449  .00001141  00000-0  89791-4 0  9999,2 53798  53.2129 102.6671 0002042  87.8040 272.3186 15.08842164 66262,6917.874,95.437,541.151,538.326,0.0
53798.0,STARLINK-4712,PAYLOAD,2023-11-17 03:14:15,15.08842296,8.22e-05,53.2174,100.5866,100.9608,259.1477,0.00011346,1.519e-05,0.0,0 STARLINK-4712,1 53798U 22111AB  23321.13489985  .00001519  00000-0  11346-3 0  9991,2 53798  53.2174 100.5866 0000822 100.9608 259.1477 15.08842296 65526,6917.873,95.437,540.307,539.17,0.0
53798.0,STARLINK-4712,PAYLOAD,2023-11-17 12:46:34,15.08840055,0.0001494,53.2167,98.8011,93.8084,266.3079,3.4826e-05,2.66e-06,0.0,0 STARLINK-4712,1 53798U 22111AB  23321.53234571  .00000266  00000-0  34826-4 0  9991,2 53798  53.2167  98.8011 0001494  93.8084 266.3079 15.08840055 66398,6917.88,95.438,540.779,538.712,0.0
53798.0,STARLINK-4712,PAYLOAD,2023-11-17 19:08:07,15.08833211,0.0001112,53.2199,97.6121,91.743,268.369,0.00016143,2.282e-05,0.0,0 STARLINK-4712,1 53798U 22111AB  23321.79730598  .00002282  00000-0  16143-3 0  9990,2 53798  53.2199  97.6121 0001112  91.7430 268.3690 15.08833211 65623,6917.901,95.438,540.535,538.997,0.0
53798.0,STARLINK-4712,PAYLOAD,2023-11-18 12:37:21,15.08838055,0.0001447,53.2169,94.3412,95.8373,264.2784,3.2839e-05,2.35e-06,0.0,0 STARLINK-4712,1 53798U 22111AB  23322.52594861  .00000235  00000-0  32839-4 0  9990,2 53798  53.2169  94.3412 0001447  95.8373 264.2784 15.08838055 66541,6917.886,95.438,540.752,538.75,0.0
53798.0,STARLINK-4712,PAYLOAD,2023-11-18 15:48:08,15.08841209,0.0001169,53.217,93.7464,88.6477,271.4649,3.9271e-05,3.37e-06,0.0,0 STARLINK-4712,1 53798U 22111AB  23322.65842630  .00000337  00000-0  39271-4 0  9994,2 53798  53.2170  93.7464 0001169  88.6477 271.4649 15.08841209 66566,6917.877,95.437,540.55,538.933,0.0
53798.0,STARLINK-4712,PAYLOAD,2023-11-19 09:17:22,15.08837241,0.0001434,53.217,90.4757,95.0782,265.0374,6.4791e-05,7.43e-06,0.0,0 STARLINK-4712,1 53798U 22111AB  23323.38706934  .00000743  00000-0  64791-4 0  9997,2 53798  53.2170  90.4757 0001434  95.0782 265.0374 15.08837241 65868,6917.889,95.438,540.746,538.762,0.0
53798.0,STARLINK-4712,PAYLOAD,2023-11-19 14:03:31,15.08840602,0.000143,53.218,89.5839,94.4832,265.6324,8.7614e-05,1.107e-05,0.0,0 STARLINK-4712,1 53798U 22111AB  23323.58578682  .00001107  00000-0  87614-4 0  9990,2 53798  53.2180  89.5839 0001430  94.4832 265.6324 15.08840602 66704,6917.879,95.438,540.733,538.754,0.0
53798.0,STARLINK-4712,PAYLOAD,2023-11-19 15:38:54,15.08843126,0.0001394,53.2179,89.287,94.0496,266.0656,0.00011001,1.463e-05,0.0,0 STARLINK-4712,1 53798U 22111AB  23323.65202465  .00001463  00000-0  11001-3 0  9992,2 53798  53.2179  89.2870 0001394  94.0496 266.0656 15.08843126 66713,6917.871,95.437,540.7,538.771,0.0
53798.0,STARLINK-4712,PAYLOAD,2023-11-20 01:11:13,15.08851159,0.0001278,53.2177,87.5046,98.7192,261.3945,-0.0001348,-2.433e-05,0.0,0 STARLINK-4712,1 53798U 22111AB  23324.04946453 -.00002433  00000-0 -13480-3 0  9991,2 53798  53.2177  87.5046 0001278  98.7192 261.3945 15.08851159 65962,6917.846,95.437,540.595,538.827,0.0
53798.0,STARLINK-4712,PAYLOAD,2023-11-20 07:32:46,15.08838015,0.0001229,53.2175,86.3149,96.7844,263.3288,0.00010173,1.331e-05,0.0,0 STARLINK-4712,1 53798U 22111AB  23324.31442875  .00001331  00000-0  10173-3 0  9990,2 53798  53.2175  86.3149 0001229  96.7844 263.3288 15.08838015 66003,6917.886,95.438,540.602,538.901,0.0
53798.0,STARLINK-4712,PAYLOAD,2023-11-20 13:54:19,15.08840861,0.0001245,53.2178,85.1255,96.6823,263.4311,8.8164e-05,1.116e-05,0.0,0 STARLINK-4712,1 53798U 22111AB  23324.57938776  .00001116  00000-0  88164-4 0  9995,2 53798  53.2178  85.1255 0001245  96.6823 263.4311 15.08840861 66858,6917.878,95.438,540.604,538.881,0.0
53798.0,STARLINK-4712,PAYLOAD,2023-11-20 17:05:05,15.08844471,0.0001281,53.2177,84.5303,95.6407,264.4732,0.00011399,1.527e-05,0.0,0 STARLINK-4712,1 53798U 22111AB  23324.71186480  .00001527  00000-0  11399-3 0  9999,2 53798  53.2177  84.5303 0001281  95.6407 264.4732 15.08844471 66872,6917.867,95.437,540.618,538.846,0.0
53798.0,STARLINK-4712,PAYLOAD,2023-11-21 10:34:20,15.08839143,0.0001399,53.2182,81.2599,89.3927,270.7225,1.3237e-05,-7.7e-07,0.0,0 STARLINK-4712,1 53798U 22111AB  23325.44051132 -.00000077  00000-0  13237-4 0  9999,2 53798  53.2182  81.2599 0001399  89.3927 270.7225 15.08839143 66176,6917.883,95.438,540.716,538.78,0.0
53798.0,STARLINK-4712,PAYLOAD,2023-11-21 13:45:06,15.08839551,0.0001405,53.218,80.6652,85.2761,274.8392,1.3698e-05,-7e-07,0.0,0 STARLINK-4712,1 53798U 22111AB  23325.57299139 -.00000070  00000-0  13698-4 0  9998,2 53798  53.2180  80.6652 0001405  85.2761 274.8392 15.08839551 67002,6917.882,95.438,540.719,538.775,0.0
53798.0,STARLINK-4712,PAYLOAD,2023-11-21 15:20:29,15.08842127,0.0001423,53.2184,80.3683,88.6107,271.5048,3.5737e-05,2.81e-06,0.0,0 STARLINK-4712,1 53798U 22111AB  23325.63922896  .00000281  00000-0  35737-4 0  9999,2 53798  53.2184  80.3683 0001423  88.6107 271.5048 15.08842127 67014,6917.874,95.437,540.723,538.754,0.0
53798.0,STARLINK-4712,PAYLOAD,2023-11-22 12:00:29,15.08847666,0.0001374,53.2184,76.5024,87.0748,273.0401,9.865e-05,1.283e-05,0.0,0 STARLINK-4712,1 53798U 22111AB  23326.50034191  .00001283  00000-0  98650-4 0  9994,2 53798  53.2184  76.5024 0001374  87.0748 273.0401 15.08847666 66336,6917.857,95.437,540.672,538.771,0.0
53798.0,STARLINK-4712,PAYLOAD,2023-11-22 13:35:52,15.08851534,0.0001409,53.2184,76.2034,80.806,279.3091,9.8099e-05,1.274e-05,0.0,0 STARLINK-4712,1 53798U 22111AB  23326.56657968  .00001274  00000-0  98099-4 0  9990,2 53798  53.2184  76.2034 0001409  80.8060 279.3091 15.08851534 67155,6917.845,95.437,540.685,538.735,0.0
53798.0,STARLINK-4712,PAYLOAD,2023-11-22 15:11:14,15.08862609,0.0001528,53.2185,75.907,70.4931,289.6226,0.00020355,2.955e-05,0.0,0 STARLINK-4712,1 53798U 22111AB  23326.63281062  .00002955  00000-0  20355-3 0  9992,2 53798  53.2185  75.9070 0001528  70.4931 289.6226 15.08862609 66356,6917.811,95.436,540.733,538.619,0.0
53798.0,STARLINK-4712,PAYLOAD,2023-11-23 11:51:17,15.08831139,0.0001419,53.2176,72.0415,83.8866,276.2288,-2.7651e-05,-7.28e-06,0.0,0 STARLINK-4712,1 53798U 22111AB  23327.49395249 -.00000728  00000-0 -27651-4 0  9995,2 53798  53.2176  72.0415 0001419  83.8866 276.2288 15.08831139 66489,6917.907,95.438,540.754,538.791,0.0
53798.0,STARLINK-4712,PAYLOAD,2023-11-23 13:26:40,15.08833964,0.0001337,53.2176,71.7427,96.78,263.3344,-7.1288e-05,-1.422e-05,0.0,0 STARLINK-4712,1 53798U 22111AB  23327.56019042 -.00001422  00000-0 -71288-4 0  9994,2 53798  53.2176  71.7427 0001337  96.7800 263.3344 15.08833964 67308,6917.899,95.438,540.689,538.839,0.0
53798.0,STARLINK-4712,PAYLOAD,2023-11-24 13:17:27,15.08840216,0.0001544,53.2179,67.2831,84.8324,275.2844,-2.1198e-05,-6.25e-06,0.0,0 STARLINK-4712,1 53798U 22111AB  23328.55379409 -.00000625  00000-0 -21198-4 0  9999,2 53798  53.2179  67.2831 0001544  84.8324 275.2844 15.08840216 67450,6917.88,95.438,540.813,538.677,0.0
